TELKOM 4 (MERAH PUTIH)  
1 43587U 18064A   26061.85252316 -.00000360  00000+0  00000+0 0  9991
2 43587   0.0099 159.7699 0001598 214.3271 201.4215  1.00271229 27813
TELSTAR 18V             
1 43611U 18069A   26061.50121686 -.00000311  00000+0  00000+0 0  9997
2 43611   0.0216 239.0373 0002313  99.9795 139.6885  1.00271776 27561
AZERSPACE 2 (IS-38)     
1 43632U 18074A   26061.73973463  .00000000  00000+0  00000+0 0  9993
2 43632   0.0250 149.9423 0001485 198.0695 123.9322  1.00269584 27382
HORIZONS-3E             
1 43633U 18074B   26061.38462569 -.00000048  00000+0  00000+0 0  9998
2 43633   0.0174 320.8100 0000680   1.7401 145.0434  1.00271501 27270
BEIDOU-3 G1             
1 43683U 18085A   26061.75854140 -.00000294  00000+0  00000+0 0  9999
2 43683   2.8063 100.4335 0001290  30.1716  83.0505  1.00269049 26999
GSAT-29                 
1 43698U 18089A   26061.82267102  .00000069  00000+0  00000+0 0  9992
2 43698   0.0615 273.6993 0001862  49.3646 188.7024  1.00271064 26720
ES'HAIL 2               
1 43700U 18090A   26061.72035672  .00000127  00000+0  00000+0 0  9997
2 43700   0.0255 242.7362 0002653 132.4476  70.4158  1.00267779 26605
GEO-KOMPSAT-2A          
1 43823U 18100A   26060.97179095 -.00000362  00000+0  00000+0 0  9991
2 43823   0.0180  67.6811 0001336 333.4250 236.7399  1.00270368 26557
GSAT-11                 
1 43824U 18100B   26061.84072336 -.00000093  00000+0  00000+0 0  9990
2 43824   0.0896 271.1988 0004838 143.4568 122.5963  1.00271601 26415
GSAT-7A                 
1 43864U 18105A   26061.86169131  .00000011  00000+0  00000+0 0  9990
2 43864   0.1027 277.3552 0002073  49.9600 206.2554  1.00270588 26382
COSMOS 2533             
1 43867U 18107A   26061.18933596 -.00000055  00000+0  00000+0 0  9993
2 43867   0.0195 114.5866 0000630 341.1778 202.3414  1.00268392 26360
TJS-3                   
1 43874U 18110A   26061.10603822 -.00000229  00000+0  00000+0 0  9996
2 43874   2.2688  81.8170 0016635 344.8419 217.6350  1.00349757 26348
ZHONGXING-2D            
1 43920U 19001A   26061.89091478 -.00000353  00000+0  00000+0 0  9990
2 43920   0.0557 290.9257 0001277 355.9743 324.4995  1.00272478 53010
HELLAS-SAT 4 & SGS-1    
1 44034U 19007A   26061.73852131  .00000136  00000+0  00000+0 0  9995
2 44034   0.0652 125.8686 0003037  29.0121 310.5038  1.00268904 26293
GSAT-31                 
1 44035U 19007B   26061.82267102  .00000109  00000+0  00000+0 0  9994
2 44035   0.0423 274.7780 0004772  29.0818 200.7582  1.00269626 25902
NUSANTARA SATU          
1 44048U 19009A   26061.50432800 -.00000252  00000+0  00000+0 0  9994
2 44048   0.0271 131.4512 0001319 318.0739  38.2962  1.00270564 25703
ZHONGXING-6C            
1 44067U 19012A   26061.75663472 -.00000352  00000+0  00000+0 0  9998
2 44067   0.0390  54.0893 0008466 334.9348 174.3033  1.00271094 25677
